[{"OBJECT_NAME":"STARLINK-32205","OBJECT_ID":"2024-131M","EPOCH":"2026-03-09T22:28:52.928544","MEAN_MOTION":15.30185056,"ECCENTRICITY":0.0001352,"INCLINATION":53.1612,"RA_OF_ASC_NODE":51.4919,"ARG_OF_PERICENTER":92.8209,"MEAN_ANOMALY":267.2946,"EPHEMERIS_TYPE":0,"CLASSIFICATION_TYPE":"U","NORAD_CAT_ID":60266,"ELEMENT_SET_NO":999,"REV_AT_EPOCH":9175,"BSTAR":8.460043e-6,"MEAN_MOTION_DOT":-1.09e-6,"MEAN_MOTION_DDOT":0},{"OBJECT_NAME":"OBJECT A","OBJECT_ID":"2025-013A","EPOCH":"2026-03-09T23:29:31.895232","MEAN_MOTION":15.29260221,"ECCENTRICITY":0.0010321,"INCLINATION":97.6364,"RA_OF_ASC_NODE":244.5149,"ARG_OF_PERICENTER":282.3775,"MEAN_ANOMALY":77.6309,"EPHEMERIS_TYPE":0,"CLASSIFICATION_TYPE":"U","NORAD_CAT_ID":62729,"ELEMENT_SET_NO":999,"REV_AT_EPOCH":6276,"BSTAR":0.0013206527,"MEAN_MOTION_DOT":0.00037616,"MEAN_MOTION_DDOT":0}]
